GLOBALSTAR M001         
1 25162U 98008A   25077.88651932 -.00000055  00000+0  31923-3 0  9995
2 25162  52.0018 236.0520 0002248  77.5440  78.5888 12.38210092232521
GLOBALSTAR M004         
1 25163U 98008B   25077.88932793 -.00000036  00000+0  37394-3 0  9990
2 25163  52.0022 329.6300 0003766  87.6874 353.1606 12.63390684250277
GLOBALSTAR M002         
1 25164U 98008C   25077.46077391 -.00000079  00000+0 -58057-4 0  9997
2 25164  51.9993 107.6844 0001081 342.1705  17.9077 11.61508021173522
GLOBALSTAR M003         
1 25165U 98008D   25077.97466566 -.00000062  00000+0  29443-3 0  9997
2 25165  52.0004  58.3662 0008267 110.7939 264.4129 12.12074998222282
GLOBALSTAR M014         
1 25306U 98023A   25077.88864733 -.00000078  00000+0 -10700-4 0  9994
2 25306  51.9867  31.7331 0000804 173.2420 200.4739 11.65478718180645
GLOBALSTAR M006         
1 25307U 98023B   25077.44412243 -.00000075  00000+0  11746-4 0  9999
2 25307  51.9926  81.9385 0003206 299.8390 212.9700 11.58172920206315
GLOBALSTAR M015         
1 25308U 98023C   25077.75246999 -.00000082  00000+0 -20567-3 0  9996
2 25308  51.9810 175.4994 0012025 273.2671 207.9273 11.48858769183684
GLOBALSTAR M008         
1 25309U 98023D   25077.60610904 -.00000089  00000+0  54485-4 0  9995
2 25309  51.9952 100.6711 0002399 349.8274 161.0352 12.36064502226645
